[{"OBJECT_NAME":"STARLINK-4196","OBJECT_ID":"2022-062AF","EPOCH":"2026-03-09T06:43:10.767936","MEAN_MOTION":15.08842456,"ECCENTRICITY":0.00013927,"INCLINATION":53.2196,"RA_OF_ASC_NODE":25.9608,"ARG_OF_PERICENTER":90.389,"MEAN_ANOMALY":269.7262,"EPHEMERIS_TYPE":0,"CLASSIFICATION_TYPE":"U","NORAD_CAT_ID":52859,"ELEMENT_SET_NO":999,"REV_AT_EPOCH":20586,"BSTAR":-2.4094045e-5,"MEAN_MOTION_DOT":-6.71e-6,"MEAN_MOTION_DDOT":0},{"OBJECT_NAME":"OBJECT E","OBJECT_ID":"2025-013E","EPOCH":"2026-03-09T23:59:52.369152","MEAN_MOTION":15.10347623,"ECCENTRICITY":0.00085591,"INCLINATION":97.6477,"RA_OF_ASC_NODE":238.3736,"ARG_OF_PERICENTER":6.9171,"MEAN_ANOMALY":353.2174,"EPHEMERIS_TYPE":0,"CLASSIFICATION_TYPE":"U","NORAD_CAT_ID":62733,"ELEMENT_SET_NO":999,"REV_AT_EPOCH":6224,"BSTAR":0.00032920786,"MEAN_MOTION_DOT":5.34e-5,"MEAN_MOTION_DDOT":0}]
